[{"OBJECT_NAME":"STARLINK-32457","OBJECT_ID":"2024-196L","EPOCH":"2026-03-09T12:38:03.444864","MEAN_MOTION":15.30190961,"ECCENTRICITY":0.00010728,"INCLINATION":53.1601,"RA_OF_ASC_NODE":101.9495,"ARG_OF_PERICENTER":115.0692,"MEAN_ANOMALY":245.042,"EPHEMERIS_TYPE":0,"CLASSIFICATION_TYPE":"U","NORAD_CAT_ID":61717,"ELEMENT_SET_NO":999,"REV_AT_EPOCH":7713,"BSTAR":-1.1542636e-5,"MEAN_MOTION_DOT":-7.01e-6,"MEAN_MOTION_DDOT":0},{"OBJECT_NAME":"CZ-4B R\/B","OBJECT_ID":"2004-035C","EPOCH":"2026-03-09T23:23:31.358400","MEAN_MOTION":15.2906998,"ECCENTRICITY":0.00309852,"INCLINATION":97.3501,"RA_OF_ASC_NODE":103.2135,"ARG_OF_PERICENTER":330.5139,"MEAN_ANOMALY":29.4353,"EPHEMERIS_TYPE":0,"CLASSIFICATION_TYPE":"U","NORAD_CAT_ID":28415,"ELEMENT_SET_NO":999,"REV_AT_EPOCH":17995,"BSTAR":0.00034109099,"MEAN_MOTION_DOT":9.691e-5,"MEAN_MOTION_DDOT":0}]
